CELESTIS-17 & SHERPA-FX1
1 47486U 21006CB  26068.64311433  .00007207  00000+0  24301-3 0  9993
2 47486  97.2397 112.1052 0006630 178.1385 181.9882 15.30994801284065
STARLINK-34907          
1 65213U 25176R   26068.51817607  .00032734  00000+0  11127-2 0  9997
2 65213  53.1578 153.5626 0000962  85.5613 274.5498 15.30192945 33094
